{
    "links": {
        "self": "http://www.neowsapp.com/rest/v1/neo/3471359?api_key=iIulBulltgU6a56xZRHN4H3l9WmuAYTsLGpBGhQ2"
    },
    "id": "3471359",
    "neo_reference_id": "3471359",
    "name": "(2009 TS7)",
    "designation": "2009 TS7",
    "nasa_jpl_url": "http://ssd.jpl.nasa.gov/sbdb.cgi?sstr=3471359",
    "absolute_magnitude_h": 23.0,
    "estimated_diameter": {
        "kilometers": {
            "estimated_diameter_min": 0.0667659413,
            "estimated_diameter_max": 0.1492931834
        },
        "meters": {
            "estimated_diameter_min": 66.7659413495,
            "estimated_diameter_max": 149.2931834393
        },
        "miles": {
            "estimated_diameter_min": 0.0414864197,
            "estimated_diameter_max": 0.0927664547
        },
        "feet": {
            "estimated_diameter_min": 219.0483710172,
            "estimated_diameter_max": 489.807047955
        }
    },
    "is_potentially_hazardous_asteroid": false,
    "close_approach_data": [
        {
            "close_approach_date": "2009-09-14",
            "close_approach_date_full": "2009-Sep-14 02:25",
            "epoch_date_close_approach": 1252895100000,
            "relative_velocity": {
                "kilometers_per_second": "13.5135077429",
                "kilometers_per_hour": "48648.627874381",
                "miles_per_hour": "30228.3654700563"
            },
            "miss_distance": {
                "astronomical": "0.0793701072",
                "lunar": "30.8749717008",
                "kilometers": "11873598.978791664",
                "miles": "7377912.2870824032"
            },
            "orbiting_body": "Earth"
        }
    ],
    "orbital_data": {
        "orbit_id": "10",
        "orbit_determination_date": "2017-04-06 08:59:40",
        "first_observation_date": "2009-10-14",
        "last_observation_date": "2009-10-24",
        "data_arc_in_days": 10,
        "observations_used": 28,
        "orbit_uncertainty": "8",
        "minimum_orbit_intersection": ".0152883",
        "jupiter_tisserand_invariant": "3.349",
        "epoch_osculation": "2455120.5",
        "eccentricity": ".6142435704930514",
        "semi_major_axis": "2.24758760385158",
        "inclination": "4.525375667929916",
        "ascending_node_longitude": "260.5071405255525",
        "orbital_period": "1230.759988610568",
        "perihelion_distance": ".8670213690658634",
        "perihelion_argument": "40.6306945122046",
        "aphelion_distance": "3.628153838637296",
        "perihelion_time": "2455052.880083032862",
        "mean_anomaly": "19.77897423822757",
        "mean_motion": ".2925021964732635",
        "equinox": "J2000",
        "orbit_class": {
            "orbit_class_type": "APO",
            "orbit_class_description": "Near-Earth asteroid orbits which cross the Earth’s orbit similar to that of 1862 Apollo",
            "orbit_class_range": "a (semi-major axis) > 1.0 AU; q (perihelion) < 1.017 AU"
        }
    },
    "is_sentry_object": false
}